NORAD_CAT_ID,OBJECT_NAME,OBJECT_TYPE,EPOCH,MEAN_MOTION,ECCENTRICITY,INCLINATION,RA_OF_ASC_NODE,ARG_OF_PERICENTER,MEAN_ANOMALY,BSTAR,MEAN_MOTION_DOT,MEAN_MOTION_DDOT,TLE_LINE0,TLE_LINE1,TLE_LINE2,SEMIMAJOR_AXIS,PERIOD,APOGEE,PERIGEE,DECAYED
52698.0,STARLINK-4030,PAYLOAD,2024-02-04 05:59:57,15.08854281,0.0001549,53.2181,340.8145,101.7436,258.373,7.9521e-05,9.78e-06,0.0,0 STARLINK-4030,1 52698U 22053AU  24035.24996986  .00000978  00000-0  79521-4 0  9991,2 52698  53.2181 340.8145 0001549 101.7436 258.3730 15.08854281 95271,6917.837,95.437,540.773,538.63,0.0
52698.0,STARLINK-4030,PAYLOAD,2024-02-05 02:39:58,15.08842919,0.0001725,53.2187,336.9493,108.402,251.716,3.8375e-05,3.23e-06,0.0,0 STARLINK-4030,1 52698U 22053AU  24036.11109748  .00000323  00000-0  38375-4 0  9996,2 52698  53.2187 336.9493 0001725 108.4020 251.7160 15.08842919 95402,6917.871,95.437,540.93,538.543,0.0
52698.0,STARLINK-4030,PAYLOAD,2024-02-06 02:30:45,15.08847393,0.0001374,53.2175,332.4911,91.1885,268.9264,-1.9163e-05,-5.93e-06,0.0,0 STARLINK-4030,1 52698U 22053AU  24037.10469668 -.00000593  00000-0 -19163-4 0  9991,2 52698  53.2175 332.4911 0001374  91.1885 268.9264 15.08847393 95958,6917.858,95.437,540.673,538.772,0.0
52698.0,STARLINK-4030,PAYLOAD,2024-02-07 02:21:32,15.08844433,0.0001559,53.2186,328.0325,113.6348,246.4808,3.3657e-05,2.48e-06,0.0,0 STARLINK-4030,1 52698U 22053AU  24038.09829675  .00000248  00000-0  33657-4 0  9997,2 52698  53.2186 328.0325 0001559 113.6348 246.4808 15.08844433 95709,6917.867,95.437,540.81,538.653,0.0
52698.0,STARLINK-4030,PAYLOAD,2024-02-07 11:53:52,15.08835494,0.0001581,53.2182,326.246,113.4136,246.7023,4.1316e-05,3.7e-06,0.0,0 STARLINK-4030,1 52698U 22053AU  24038.49574296  .00000370  00000-0  41316-4 0  9994,2 52698  53.2182 326.2460 0001581 113.4136 246.7023 15.08835494 95768,6917.894,95.438,540.853,538.665,0.0
52698.0,STARLINK-4030,PAYLOAD,2024-02-08 05:23:06,15.08846593,0.0001434,53.2177,322.9759,115.1761,244.938,8.0887e-05,1e-05,0.0,0 STARLINK-4030,1 52698U 22053AU  24039.22437806  .00001000  00000-0  80887-4 0  9998,2 52698  53.2177 322.9759 0001434 115.1761 244.9380 15.08846593 95876,6917.86,95.437,540.717,538.733,0.0
52698.0,STARLINK-4030,PAYLOAD,2024-02-08 22:52:21,15.08842335,0.000164,53.2194,319.6991,98.1382,261.9796,1.9894e-06,-2.56e-06,0.0,0 STARLINK-4030,1 52698U 22053AU  24039.95302652 -.00000256  00000-0  19894-5 0  9992,2 52698  53.2194 319.6991 0001640  98.1382 261.9796 15.08842335 96381,6917.873,95.437,540.873,538.604,0.0
52698.0,STARLINK-4030,PAYLOAD,2024-02-09 03:38:30,15.08846489,0.0001584,53.219,318.8069,115.4679,244.6477,2.8796e-05,1.7e-06,0.0,0 STARLINK-4030,1 52698U 22053AU  24040.15174146  .00000170  00000-0  28796-4 0  9995,2 52698  53.2190 318.8069 0001584 115.4679 244.6477 15.08846489 96011,6917.861,95.437,540.821,538.63,0.0
52698.0,STARLINK-4030,PAYLOAD,2024-02-09 17:56:59,15.08827345,0.0001193,53.2185,316.1358,99.7441,260.3686,5.0173e-05,5.11e-06,0.0,0 STARLINK-4030,1 52698U 22053AU  24040.74791639  .00000511  00000-0  50173-4 0  9995,2 52698  53.2185 316.1358 0001193  99.7441 260.3686 15.08827345 96101,6917.919,95.438,540.609,538.959,0.0
52698.0,STARLINK-4030,PAYLOAD,2024-02-10 03:29:17,15.0884579,0.0001507,53.2181,314.3487,121.2361,238.8779,0.00012046,1.63e-05,0.0,0 STARLINK-4030,1 52698U 22053AU  24041.14534328  .00001630  00000-0  12046-3 0  9999,2 52698  53.2181 314.3487 0001507 121.2361 238.8779 15.08845790 96164,6917.863,95.437,540.77,538.685,0.0
52698.0,STARLINK-4030,PAYLOAD,2024-02-10 17:47:47,15.08831591,0.000143,53.2208,311.674,121.3277,238.7855,2.5803e-05,1.23e-06,0.0,0 STARLINK-4030,1 52698U 22053AU  24041.74151717  .00000123  00000-0  25803-4 0  9994,2 52698  53.2208 311.6740 0001430 121.3277 238.7855 15.08831591 96256,6917.906,95.438,540.76,538.782,0.0
52698.0,STARLINK-4030,PAYLOAD,2024-02-10 22:33:55,15.08842874,0.0001802,53.2192,310.7837,104.1618,255.9574,2.2702e-05,7.3e-07,0.0,0 STARLINK-4030,1 52698U 22053AU  24041.94023130  .00000073  00000-0  22702-4 0  9992,2 52698  53.2192 310.7837 0001802 104.1618 255.9574 15.08842874 96688,6917.872,95.437,540.983,538.49,0.0
52698.0,STARLINK-4030,PAYLOAD,2024-02-11 00:09:19,15.0884373,0.0001696,53.2188,310.4861,106.8275,253.2903,2.348e-05,8.6e-07,0.0,0 STARLINK-4030,1 52698U 22053AU  24042.00647039  .00000086  00000-0  23480-4 0  9998,2 52698  53.2188 310.4861 0001696 106.8275 253.2903 15.08843730 96292,6917.869,95.437,540.907,538.561,0.0
52698.0,STARLINK-4030,PAYLOAD,2024-02-11 22:24:42,15.08852694,0.0001647,53.2186,306.3243,87.506,272.612,0.00012161,1.649e-05,0.0,0 STARLINK-4030,1 52698U 22053AU  24042.93382233  .00001649  00000-0  12161-3 0  9991,2 52698  53.2186 306.3243 0001647  87.5060 272.6120 15.08852694 96836,6917.842,95.437,540.846,538.567,0.0
52698.0,STARLINK-4030,PAYLOAD,2024-02-12 03:10:50,15.08861092,0.0001578,53.2174,305.4283,111.9392,248.1768,0.00018305,2.628e-05,0.0,0 STARLINK-4030,1 52698U 22053AU  24043.13253275  .00002628  00000-0  18305-3 0  9991,2 52698  53.2174 305.4283 0001578 111.9392 248.1768 15.08861092 96467,6917.816,95.436,540.773,538.589,0.0
52698.0,STARLINK-4030,PAYLOAD,2024-02-12 17:29:20,15.0883881,0.0001527,53.2179,302.7562,82.1002,278.0163,2.7986e-05,1.57e-06,0.0,0 STARLINK-4030,1 52698U 22053AU  24043.72871379  .00000157  00000-0  27986-4 0  9998,2 52698  53.2179 302.7562 0001527  82.1002 278.0163 15.08838810 96556,6917.884,95.438,540.805,538.693,0.0
52698.0,STARLINK-4030,PAYLOAD,2024-02-12 22:15:29,15.08840313,0.0001578,53.2168,301.8642,91.9663,268.151,2.9869e-06,-2.4e-06,0.0,0 STARLINK-4030,1 52698U 22053AU  24043.92742959 -.00000240  00000-0  29869-5 0  9998,2 52698  53.2168 301.8642 0001578  91.9663 268.1510 15.08840313 96984,6917.879,95.438,540.836,538.653,0.0
52698.0,STARLINK-4030,PAYLOAD,2024-02-13 03:01:39,15.08844952,0.0001434,53.2161,300.9693,87.7457,272.37,8.5369e-05,1.071e-05,0.0,0 STARLINK-4030,1 52698U 22053AU  24044.12614705  .00001071  00000-0  85369-4 0  9996,2 52698  53.2161 300.9693 0001434  87.7457 272.3700 15.08844952 96619,6917.865,95.437,540.722,538.738,0.0
52698.0,STARLINK-4030,PAYLOAD,2024-02-13 22:06:17,15.08839971,0.0001486,53.2159,297.3978,104.4481,255.6676,-9.1901e-05,-1.75e-05,0.0,0 STARLINK-4030,1 52698U 22053AU  24044.92103015 -.00001750  00000-0 -91901-4 0  9996,2 52698  53.2159 297.3978 0001486 104.4481 255.6676 15.08839971 97131,6917.88,95.438,540.773,538.717,0.0
52698.0,STARLINK-4030,PAYLOAD,2024-02-14 09:13:58,15.08845464,0.00012,53.2152,295.3175,85.4677,274.6452,0.00021376,3.116e-05,0.0,0 STARLINK-4030,1 52698U 22053AU  24045.38470764  .00003116  00000-0  21376-3 0  9999,2 52698  53.2152 295.3175 0001200  85.4677 274.6452 15.08845464 96800,6917.864,95.437,540.559,538.899,0.0
52698.0,STARLINK-4030,PAYLOAD,2024-02-14 21:57:04,15.08836448,0.0001628,53.2171,292.9393,84.6616,275.4562,6.1515e-05,6.91e-06,0.0,0 STARLINK-4030,1 52698U 22053AU  24045.91463342  .00000691  00000-0  61515-4 0  9997,2 52698  53.2171 292.9393 0001628  84.6616 275.4562 15.08836448 97280,6917.891,95.438,540.882,538.63,0.0
52698.0,STARLINK-4030,PAYLOAD,2024-02-14 23:32:27,15.08841841,0.0001439,53.2167,292.6465,93.1479,266.9677,0.00017526,2.503e-05,0.0,0 STARLINK-4030,1 52698U 22053AU  24045.98087152  .00002503  00000-0  17526-3 0  9991,2 52698  53.2167 292.6465 0001439  93.1479 266.9677 15.08841841 96895,6917.875,95.437,540.735,538.744,0.0
52698.0,STARLINK-4030,PAYLOAD,2024-02-15 20:12:29,15.08827406,0.0001335,53.216,288.7812,93.9302,266.1843,-0.00013586,-2.449e-05,0.0,0 STARLINK-4030,1 52698U 22053AU  24046.84200320 -.00002449  00000-0 -13586-3 0  9994,2 52698  53.2160 288.7812 0001335  93.9302 266.1843 15.08827406 97022,6917.919,95.438,540.707,538.86,0.0
52698.0,STARLINK-4030,PAYLOAD,2024-02-15 21:47:52,15.0883556,0.0001056,53.2151,288.4818,85.7908,274.3205,-2.333e-05,-6.59e-06,0.0,0 STARLINK-4030,1 52698U 22053AU  24046.90824417 -.00000659  00000-0 -23330-4 0  9990,2 52698  53.2151 288.4818 0001056  85.7908 274.3205 15.08835560 97434,6917.894,95.438,540.489,539.028,0.0
52698.0,STARLINK-4030,PAYLOAD,2024-02-16 08:55:33,15.08838532,0.0001402,53.2151,286.3976,84.2125,275.9027,5.3771e-05,5.68e-06,0.0,0 STARLINK-4030,1 52698U 22053AU  24047.37191920  .00000568  00000-0  53771-4 0  9997,2 52698  53.2151 286.3976 0001402  84.2125 275.9027 15.08838532 97101,6917.885,95.438,540.72,538.78,0.0
52698.0,STARLINK-4030,PAYLOAD,2024-02-16 21:38:38,15.08844119,0.0001346,53.215,284.02,87.0636,273.051,0.00015475,2.176e-05,0.0,0 STARLINK-4030,1 52698U 22053AU  24047.90183791  .00002176  00000-0  15475-3 0  9998,2 52698  53.2150 284.0200 0001346  87.0636 273.0510 15.08844119 97586,6917.868,95.437,540.664,538.802,0.0
52698.0,STARLINK-4030,PAYLOAD,2024-02-17 00:49:24,15.08851057,0.0001607,53.2158,283.4252,91.9803,268.1373,0.00025806,3.823e-05,0.0,0 STARLINK-4030,1 52698U 22053AU  24048.03431529  .00003823  00000-0  25806-3 0  9997,2 52698  53.2158 283.4252 0001607  91.9803 268.1373 15.08851057 97204,6917.847,95.437,540.823,538.6,0.0
52698.0,STARLINK-4030,PAYLOAD,2024-02-17 08:46:20,15.08840096,0.0001433,53.2138,281.9358,77.7371,282.3782,0.00015329,2.153e-05,0.0,0 STARLINK-4030,1 52698U 22053AU  24048.36552029  .00002153  00000-0  15329-3 0  9996,2 52698  53.2138 281.9358 0001433  77.7371 282.3782 15.08840096 97259,6917.88,95.438,540.736,538.754,0.0
52698.0,STARLINK-4030,PAYLOAD,2024-02-17 15:07:53,15.08840649,0.0001492,53.2131,280.7473,81.2225,278.8936,0.00015012,2.102e-05,0.0,0 STARLINK-4030,1 52698U 22053AU  24048.63048125  .00002102  00000-0  15012-3 0  9996,2 52698  53.2131 280.7473 0001492  81.2225 278.8936 15.08840649 97693,6917.878,95.438,540.776,538.711,0.0
52698.0,STARLINK-4030,PAYLOAD,2024-02-17 21:29:26,15.08843543,0.0001374,53.2144,279.5584,82.6106,277.5042,0.00017684,2.528e-05,0.0,0 STARLINK-4030,1 52698U 22053AU  24048.89544002  .00002528  00000-0  17684-3 0  9998,2 52698  53.2144 279.5584 0001374  82.6106 277.5042 15.08843543 97733,6917.87,95.437,540.685,538.784,0.0
